0 COSMOS 2251 DEB
1 37110U 93036BGG 13281.56920287  .00004551  00000-0  95392-3 0  2659
2 37110 073.8097 007.9498 0078191 264.4631 154.3608 14.58108270190178
0 COSMOS 2251 DEB
1 37110U 93036BGG 13282.59908802  .00006149  00000-0  12855-2 0  2660
2 37110 073.8097 005.9630 0078196 262.3534 160.3821 14.58125911190320
0 COSMOS 2251 DEB
1 37110U 93036BGG 13285.54863662  .00005242  00000-0  10962-2 0  2673
2 37110 073.8101 000.2723 0078278 256.2994 163.2916 14.58156669190758
0 COSMOS 2251 DEB
1 37110U 93036BGG 13287.62436502  .00007643  00000-0  15935-2 0  2686
2 37110 073.8102 356.2676 0078295 252.0317 259.5105 14.58178966191059
0 COSMOS 2251 DEB
1 37110U 93036BGG 13289.88292944  .00007592  00000-0  15818-2 0  2690
2 37110 073.8100 351.9104 0078292 247.3908 235.7421 14.58213666191385
0 COSMOS 2251 DEB
1 37110U 93036BGG 13292.54813780  .00006943  00000-0  14462-2 0  2709
2 37110 073.8092 346.7681 0078224 241.8931 186.9766 14.58249047191771
0 COSMOS 2251 DEB
1 37110U 93036BGG 13294.82198036  .00008908  00000-0  18520-2 0  2715
2 37110 073.8088 342.3802 0078138 237.1957 243.9764 14.58277802192103
